start=new Date('2022-04-04T00:00:00.000Z').valueOf();
sats=[{"EPHEMERIS_TYPE":"0","NORAD_CAT_ID":"51128","APOAPSIS":"440.741","RA_OF_ASC_NODE":"267.1840","GP_ID":"200380135","REF_FRAME":"TEME","TIME_SYSTEM":"UTC","RCS_SIZE":"LARGE","FILE":"3386965","OBJECT_TYPE":"PAYLOAD","CENTER_NAME":"EARTH","OBJECT_ID":"2022-005AA","MEAN_MOTION_DOT":"-0.00712333","TLE_LINE1":"1 51128U 22005AA  22093.91667824 -.00712333  00000-0 -17661-1 0  9998","EPOCH":"2022-04-03T22:00:00.999936","TLE_LINE2":"2 51128  53.2173 267.1840 0001668  41.8506  94.8501 15.42205517  3667","INCLINATION":"53.2173","LAUNCH_DATE":"2022-01-19","PERIAPSIS":"438.466","MEAN_MOTION":"15.42205517","MEAN_ELEMENT_THEORY":"SGP4","ELEMENT_SET_NO":"999","DECAY_DATE":null,"CLASSIFICATION_TYPE":"U","ARG_OF_PERICENTER":"41.8506","COUNTRY_CODE":"US","MEAN_MOTION_DDOT":"0.0000000000000","MEAN_ANOMALY":"94.8501","PERIOD":"93.373","OBJECT_NAME":"STARLINK-3400","REV_AT_EPOCH":"366","SITE":"AFETR","SEMIMAJOR_AXIS":"6817.739","BSTAR":"-0.01766100000000","ECCENTRICITY":"0.00016680"},{"SITE":"AFETR","REV_AT_EPOCH":"1307","SEMIMAJOR_AXIS":"6827.828","BSTAR":"-0.01980000000000","ECCENTRICITY":"0.00016620","CLASSIFICATION_TYPE":"U","ARG_OF_PERICENTER":"45.9061","COUNTRY_CODE":"US","MEAN_MOTION_DDOT":"0.0000000000000","PERIOD":"93.580","MEAN_ANOMALY":"200.6808","OBJECT_NAME":"STARLINK-3396","OBJECT_ID":"2022-005AB","MEAN_MOTION_DOT":"-0.00712694","TLE_LINE1":"1 51129U 22005AB  22093.91667824 -.00712694  00000-0 -19800-1 0  9996","PERIAPSIS":"448.558","MEAN_MOTION":"15.38788416","MEAN_ELEMENT_THEORY":"SGP4","EPOCH":"2022-04-03T22:00:00.999936","TLE_LINE2":"2 51129  53.2175 266.4658 0001662  45.9061 200.6808 15.38788416 13076","LAUNCH_DATE":"2022-01-19","INCLINATION":"53.2175","ELEMENT_SET_NO":"999","DECAY_DATE":null,"EPHEMERIS_TYPE":"0","APOAPSIS":"450.828","NORAD_CAT_ID":"51129","RCS_SIZE":"LARGE","RA_OF_ASC_NODE":"266.4658","GP_ID":"200352815","REF_FRAME":"TEME","TIME_SYSTEM":"UTC","FILE":"3386730","CENTER_NAME":"EARTH","OBJECT_TYPE":"PAYLOAD"},{"SITE":"AFETR","REV_AT_EPOCH":"366","SEMIMAJOR_AXIS":"6818.843","BSTAR":"-0.01791900000000","ECCENTRICITY":"0.00015170","ARG_OF_PERICENTER":"46.1248","CLASSIFICATION_TYPE":"U","MEAN_MOTION_DDOT":"0.0000000000000","COUNTRY_CODE":"US","OBJECT_NAME":"STARLINK-3395","MEAN_ANOMALY":"59.8820","PERIOD":"93.395","MEAN_MOTION_DOT":"-0.00713566","OBJECT_ID":"2022-005AC","TLE_LINE1":"1 51130U 22005AC  22093.91667824 -.00713566  00000-0 -17919-1 0  9996","INCLINATION":"53.2173","TLE_LINE2":"2 51130  53.2173 267.1859 0001517  46.1248  59.8820 15.41830898  3664","LAUNCH_DATE":"2022-01-19","EPOCH":"2022-04-03T22:00:00.999936","PERIAPSIS":"439.673","MEAN_ELEMENT_THEORY":"SGP4","MEAN_MOTION":"15.41830898","DECAY_DATE":null,"ELEMENT_SET_NO":"999","NORAD_CAT_ID":"51130","APOAPSIS":"441.742","EPHEMERIS_TYPE":"0","TIME_SYSTEM":"UTC","GP_ID":"200381137","REF_FRAME":"TEME","RA_OF_ASC_NODE":"267.1859","RCS_SIZE":"LARGE","FILE":"3386965","CENTER_NAME":"EARTH","OBJECT_TYPE":"PAYLOAD"},{"OBJECT_ID":"2022-005AD","MEAN_MOTION_DOT":"-0.00712565","TLE_LINE1":"1 51131U 22005AD  22093.91667824 -.00712565  00000-0 -17741-1 0  9998","EPOCH":"2022-04-03T22:00:00.999936","INCLINATION":"53.2173","TLE_LINE2":"2 51131  53.2173 267.1849 0001642  42.1403  84.2575 15.42081929  3665","LAUNCH_DATE":"2022-01-19","MEAN_ELEMENT_THEORY":"SGP4","PERIAPSIS":"438.848","MEAN_MOTION":"15.42081929","ELEMENT_SET_NO":"999","DECAY_DATE":null,"EPHEMERIS_TYPE":"0","APOAPSIS":"441.087","NORAD_CAT_ID":"51131","GP_ID":"200381887","REF_FRAME":"TEME","RA_OF_ASC_NODE":"267.1849","TIME_SYSTEM":"UTC","RCS_SIZE":"LARGE","FILE":"3386965","OBJECT_TYPE":"PAYLOAD","CENTER_NAME":"EARTH","REV_AT_EPOCH":"366","SITE":"AFETR","SEMIMAJOR_AXIS":"6818.103","BSTAR":"-0.01774100000000","ECCENTRICITY":"0.00016420","CLASSIFICATION_TYPE":"U","ARG_OF_PERICENTER":"42.1403","COUNTRY_CODE":"US","MEAN_MOTION_DDOT":"0.0000000000000","PERIOD":"93.380","MEAN_ANOMALY":"84.2575","OBJECT_NAME":"STARLINK-3388"},{"TLE_LINE2":"2 51132  53.2173 267.1851 0001638  41.2621  75.1209 15.41954330  3663","LAUNCH_DATE":"2022-01-19","INCLINATION":"53.2173","EPOCH":"2022-04-03T22:00:00.999936","PERIAPSIS":"439.227","MEAN_ELEMENT_THEORY":"SGP4","MEAN_MOTION":"15.41954330","DECAY_DATE":null,"ELEMENT_SET_NO":"999","MEAN_MOTION_DOT":"-0.00713072","OBJECT_ID":"2022-005AE","TLE_LINE1":"1 51132U 22005AE  22093.91667824 -.00713072  00000-0 -17831-1 0  9993","FILE":"3386965","CENTER_NAME":"EARTH","OBJECT_TYPE":"PAYLOAD","NORAD_CAT_ID":"51132","APOAPSIS":"441.461","EPHEMERIS_TYPE":"0","TIME_SYSTEM":"UTC","RA_OF_ASC_NODE":"267.1851","GP_ID":"200380635","REF_FRAME":"TEME","RCS_SIZE":"LARGE","BSTAR":"-0.01783100000000","ECCENTRICITY":"0.00016380","SITE":"AFETR","REV_AT_EPOCH":"366","SEMIMAJOR_AXIS":"6818.479","MEAN_MOTION_DDOT":"0.0000000000000","COUNTRY_CODE":"US","OBJECT_NAME":"STARLINK-3393","MEAN_ANOMALY":"75.1209","PERIOD":"93.388","ARG_OF_PERICENTER":"41.2621","CLASSIFICATION_TYPE":"U"},{"TLE_LINE1":"1 51133U 22005AF  22093.91667824 -.00712213  00000-0 -17582-1 0  9993","MEAN_MOTION_DOT":"-0.00712213","OBJECT_ID":"2022-005AF","DECAY_DATE":null,"ELEMENT_SET_NO":"999","PERIAPSIS":"438.106","MEAN_MOTION":"15.42333327","MEAN_ELEMENT_THEORY":"SGP4","TLE_LINE2":"2 51133  53.2173 267.1837 0001644  43.8574 102.7824 15.42333327  3668","INCLINATION":"53.2173","LAUNCH_DATE":"2022-01-19","EPOCH":"2022-04-03T22:00:00.999936","RCS_SIZE":"LARGE","TIME_SYSTEM":"UTC","GP_ID":"200380885","RA_OF_ASC_NODE":"267.1837","REF_FRAME":"TEME","NORAD_CAT_ID":"51133","APOAPSIS":"440.348","EPHEMERIS_TYPE":"0","OBJECT_TYPE":"PAYLOAD","CENTER_NAME":"EARTH","FILE":"3386965","SEMIMAJOR_AXIS":"6817.362","SITE":"AFETR","REV_AT_EPOCH":"366","ECCENTRICITY":"0.00016440","BSTAR":"-0.01758200000000","ARG_OF_PERICENTER":"43.8574","CLASSIFICATION_TYPE":"U","OBJECT_NAME":"STARLINK-3356","PERIOD":"93.365","MEAN_ANOMALY":"102.7824","MEAN_MOTION_DDOT":"0.0000000000000","COUNTRY_CODE":"US"},{"MEAN_MOTION_DDOT":"0.0000000000000","COUNTRY_CODE":"US","OBJECT_NAME":"STARLINK-3183","PERIOD":"92.412","MEAN_ANOMALY":"204.9258","ARG_OF_PERICENTER":"29.4738","CLASSIFICATION_TYPE":"U","BSTAR":"-0.00569710000000","ECCENTRICITY":"0.00020150","REV_AT_EPOCH":"369","SITE":"AFETR","SEMIMAJOR_AXIS":"6770.905","FILE":"3386965","CENTER_NAME":"EARTH","OBJECT_TYPE":"PAYLOAD","APOAPSIS":"394.134","NORAD_CAT_ID":"51134","EPHEMERIS_TYPE":"0","TIME_SYSTEM":"UTC","GP_ID":"200381637","RA_OF_ASC_NODE":"264.1918","REF_FRAME":"TEME","RCS_SIZE":"LARGE","LAUNCH_DATE":"2022-01-19","TLE_LINE2":"2 51134  53.2175 264.1918 0002015  29.4738 204.9258 15.58234132  3693","INCLINATION":"53.2175","EPOCH":"2022-04-03T22:00:00.999936","MEAN_ELEMENT_THEORY":"SGP4","PERIAPSIS":"391.405","MEAN_MOTION":"15.58234132","DECAY_DATE":null,"ELEMENT_SET_NO":"999","MEAN_MOTION_DOT":"-0.00417023","OBJECT_ID":"2022-005AG","TLE_LINE1":"1 51134U 22005AG  22093.91667824 -.00417023  00000-0 -56971-2 0  9991"},{"BSTAR":"-0.01750100000000","ECCENTRICITY":"0.00017020","SITE":"AFETR","REV_AT_EPOCH":"366","SEMIMAJOR_AXIS":"6816.985","COUNTRY_CODE":"US","MEAN_MOTION_DDOT":"0.0000000000000","MEAN_ANOMALY":"114.3289","PERIOD":"93.357","OBJECT_NAME":"STARLINK-3363","CLASSIFICATION_TYPE":"U","ARG_OF_PERICENTER":"42.2115","MEAN_ELEMENT_THEORY":"SGP4","PERIAPSIS":"437.690","MEAN_MOTION":"15.42461109","EPOCH":"2022-04-03T22:00:00.999936","LAUNCH_DATE":"2022-01-19","TLE_LINE2":"2 51135  53.2173 267.1833 0001702  42.2115 114.3289 15.42461109  3669","INCLINATION":"53.2173","DECAY_DATE":null,"ELEMENT_SET_NO":"999","OBJECT_ID":"2022-005AH","MEAN_MOTION_DOT":"-0.00712018","TLE_LINE1":"1 51135U 22005AH  22093.91667824 -.00712018  00000-0 -17501-1 0  9999","FILE":"3386965","CENTER_NAME":"EARTH","OBJECT_TYPE":"PAYLOAD","EPHEMERIS_TYPE":"0","NORAD_CAT_ID":"51135","APOAPSIS":"440.011","RCS_SIZE":"LARGE","GP_ID":"200381388","REF_FRAME":"TEME","RA_OF_ASC_NODE":"267.1833","TIME_SYSTEM":"UTC"},{"MEAN_MOTION_DOT":"-0.00711908","OBJECT_ID":"2022-005AJ","TLE_LINE1":"1 51136U 22005AJ  22093.91667824 -.00711908  00000-0 -24192-1 0  9991","PERIAPSIS":"466.992","MEAN_ELEMENT_THEORY":"SGP4","MEAN_MOTION":"15.32538012","TLE_LINE2":"2 51136  53.2173 265.8444 0001830  34.8829  66.6344 15.32538012  3651","LAUNCH_DATE":"2022-01-19","INCLINATION":"53.2173","EPOCH":"2022-04-03T22:00:00.999936","DECAY_DATE":null,"ELEMENT_SET_NO":"999","NORAD_CAT_ID":"51136","APOAPSIS":"469.498","EPHEMERIS_TYPE":"0","RCS_SIZE":"LARGE","TIME_SYSTEM":"UTC","GP_ID":"200380136","REF_FRAME":"TEME","RA_OF_ASC_NODE":"265.8444","FILE":"3386965","OBJECT_TYPE":"PAYLOAD","CENTER_NAME":"EARTH","REV_AT_EPOCH":"365","SITE":"AFETR","SEMIMAJOR_AXIS":"6846.380","BSTAR":"-0.02419200000000","ECCENTRICITY":"0.00018300","ARG_OF_PERICENTER":"34.8829","CLASSIFICATION_TYPE":"U","MEAN_MOTION_DDOT":"0.0000000000000","COUNTRY_CODE":"US","OBJECT_NAME":"STARLINK-3253","MEAN_ANOMALY":"66.6344","PERIOD":"93.962"},{"OBJECT_ID":"2022-005AK","MEAN_MOTION_DOT":"-0.00711877","TLE_LINE1":"1 51137U 22005AK  22093.91667824 -.00711877  00000-0 -17274-1 0  9990","EPOCH":"2022-04-03T22:00:00.999936","INCLINATION":"53.2174","TLE_LINE2":"2 51137  53.2174 267.1809 0001789  41.0557 145.2888 15.42840597 13062","LAUNCH_DATE":"2022-01-19","MEAN_MOTION":"15.42840597","PERIAPSIS":"436.513","MEAN_ELEMENT_THEORY":"SGP4","DECAY_DATE":null,"ELEMENT_SET_NO":"999","EPHEMERIS_TYPE":"0","APOAPSIS":"438.952","NORAD_CAT_ID":"51137","REF_FRAME":"TEME","GP_ID":"200353726","RA_OF_ASC_NODE":"267.1809","TIME_SYSTEM":"UTC","RCS_SIZE":"LARGE","FILE":"3386745","OBJECT_TYPE":"PAYLOAD","CENTER_NAME":"EARTH","SITE":"AFETR","REV_AT_EPOCH":"1306","SEMIMAJOR_AXIS":"6815.867","BSTAR":"-0.01727400000000","ECCENTRICITY":"0.00017890","CLASSIFICATION_TYPE":"U","ARG_OF_PERICENTER":"41.0557","COUNTRY_CODE":"US","MEAN_MOTION_DDOT":"0.0000000000000","MEAN_ANOMALY":"145.2888","PERIOD":"93.334","OBJECT_NAME":"STARLINK-3180"}];
